HULIANWANG DIGUI 12F    
1 66000U 25231F   25300.55514118  .00000113  00000+0  16339-3 0  9994
2 66000  50.0062 310.9057 0005499 309.1345  50.9071 14.04995604  1627
HULIANWANG DIGUI 12G    
1 66001U 25231G   25300.55390924  .00000126  00000+0  17197-3 0  9999
2 66001  50.0030 310.8929 0006763 321.5358  38.5064 14.04938262  1628
HULIANWANG DIGUI 12H    
1 66002U 25231H   25300.55451096  .00000298  00000+0  28164-3 0  9994
2 66002  50.0068 310.9034 0007457 313.3129  46.7153 14.04238277  1623
HULIANWANG DIGUI 12J    
1 66003U 25231J   25300.97848525  .00000139  00000+0  17740-3 0  9990
2 66003  50.0043 309.1429 0005603 313.2008  46.8428 14.05796708  1682
CZ-8A R/B               
1 66004U 25231K   25300.57038636 -.00000038  00000+0  45668-4 0  9991
2 66004  50.0038 308.9116 0116699 124.5831 236.6160 14.30030985  1657
STARLINK-34849          
1 66005U 25232A   25300.83334491 -.01511668  00000+0 -89332-2 0  9992
2 66005  53.1556   5.6260 0001097  67.6102 166.6604 15.80279525  2175
STARLINK-35336          
1 66006U 25232B   25300.83334491 -.01524518  00000+0 -90505-2 0  9995
2 66006  53.1552   5.6205 0000898  65.6268 171.2228 15.80208112  2189
STARLINK-35196          
1 66007U 25232C   25300.83334491 -.01532845  00000+0 -91112-2 0  9993
2 66007  53.1555   5.6163 0000817  67.6344 171.3182 15.80198694  2187
STARLINK-35236          
1 66008U 25232D   25300.83334491 -.01541885  00000+0 -91890-2 0  9991
2 66008  53.1549   5.6105 0000767  69.7214 171.5546 15.80160537  2181
STARLINK-35276          
1 66009U 25232E   25300.83334491 -.01553354  00000+0 -92911-2 0  9991
2 66009  53.1548   5.6059 0000711  82.6129 161.1220 15.80105398  2174
STARLINK-35297          
1 66010U 25232F   25300.83334491 -.01559383  00000+0 -93417-2 0  9993
2 66010  53.1551   5.6012 0000952  62.9768 182.9458 15.80081244  2184
STARLINK-35256          
1 66011U 25232G   25300.83334491 -.01596746  00000+0 -96394-2 0  9995
2 66011  53.1552   5.5832 0001109  63.2297 191.4831 15.79987967  2186
