CCSDS_OMM_VERS = 2.0
CREATION_DATE  = 
ORIGINATOR     = 

OBJECT_NAME    = HULIANWANG DIGUI 12F
OBJECT_ID      = 2025-231F
CENTER_NAME    = EARTH
REF_FRAME      = TEME
TIME_SYSTEM    = UTC
MEAN_ELEMENT_THEORY = SGP/SGP4

EPOCH          = 2025-10-27T13:19:24.197952
MEAN_MOTION    = 14.04995604
ECCENTRICITY   = .00054997
INCLINATION    = 50.0062
RA_OF_ASC_NODE = 310.9057
ARG_OF_PERICENTER = 309.1345
MEAN_ANOMALY   = 50.9071

EPHEMERIS_TYPE = 0
CLASSIFICATION_TYPE = U
NORAD_CAT_ID   = 66000
ELEMENT_SET_NO = 999
REV_AT_EPOCH   = 162
BSTAR          = .16338762E-3
MEAN_MOTION_DOT = .113E-5
MEAN_MOTION_DDOT = 0

CCSDS_OMM_VERS = 2.0
CREATION_DATE  = 
ORIGINATOR     = 

OBJECT_NAME    = HULIANWANG DIGUI 12G
OBJECT_ID      = 2025-231G
CENTER_NAME    = EARTH
REF_FRAME      = TEME
TIME_SYSTEM    = UTC
MEAN_ELEMENT_THEORY = SGP/SGP4

EPOCH          = 2025-10-27T13:17:37.758336
MEAN_MOTION    = 14.04938262
ECCENTRICITY   = .00067634
INCLINATION    = 50.0030
RA_OF_ASC_NODE = 310.8929
ARG_OF_PERICENTER = 321.5358
MEAN_ANOMALY   = 38.5064

EPHEMERIS_TYPE = 0
CLASSIFICATION_TYPE = U
NORAD_CAT_ID   = 66001
ELEMENT_SET_NO = 999
REV_AT_EPOCH   = 162
BSTAR          = .17197254E-3
MEAN_MOTION_DOT = .126E-5
MEAN_MOTION_DDOT = 0

CCSDS_OMM_VERS = 2.0
CREATION_DATE  = 
ORIGINATOR     = 

OBJECT_NAME    = HULIANWANG DIGUI 12H
OBJECT_ID      = 2025-231H
CENTER_NAME    = EARTH
REF_FRAME      = TEME
TIME_SYSTEM    = UTC
MEAN_ELEMENT_THEORY = SGP/SGP4

EPOCH          = 2025-10-27T13:18:29.746944
MEAN_MOTION    = 14.04238277
ECCENTRICITY   = .00074572
INCLINATION    = 50.0068
RA_OF_ASC_NODE = 310.9034
ARG_OF_PERICENTER = 313.3129
MEAN_ANOMALY   = 46.7153

EPHEMERIS_TYPE = 0
CLASSIFICATION_TYPE = U
NORAD_CAT_ID   = 66002
ELEMENT_SET_NO = 999
REV_AT_EPOCH   = 162
BSTAR          = .28164459E-3
MEAN_MOTION_DOT = .298E-5
MEAN_MOTION_DDOT = 0

CCSDS_OMM_VERS = 2.0
CREATION_DATE  = 
ORIGINATOR     = 

OBJECT_NAME    = HULIANWANG DIGUI 12J
OBJECT_ID      = 2025-231J
CENTER_NAME    = EARTH
REF_FRAME      = TEME
TIME_SYSTEM    = UTC
MEAN_ELEMENT_THEORY = SGP/SGP4

EPOCH          = 2025-10-27T23:29:01.125600
MEAN_MOTION    = 14.05796708
ECCENTRICITY   = .00056033
INCLINATION    = 50.0043
RA_OF_ASC_NODE = 309.1429
ARG_OF_PERICENTER = 313.2008
MEAN_ANOMALY   = 46.8428

EPHEMERIS_TYPE = 0
CLASSIFICATION_TYPE = U
NORAD_CAT_ID   = 66003
ELEMENT_SET_NO = 999
REV_AT_EPOCH   = 168
BSTAR          = .17739515E-3
MEAN_MOTION_DOT = .139E-5
MEAN_MOTION_DDOT = 0

CCSDS_OMM_VERS = 2.0
CREATION_DATE  = 
ORIGINATOR     = 

OBJECT_NAME    = CZ-8A R/B
OBJECT_ID      = 2025-231K
CENTER_NAME    = EARTH
REF_FRAME      = TEME
TIME_SYSTEM    = UTC
MEAN_ELEMENT_THEORY = SGP/SGP4

EPOCH          = 2025-10-27T13:41:21.381504
MEAN_MOTION    = 14.30030985
ECCENTRICITY   = .01166998
INCLINATION    = 50.0038
RA_OF_ASC_NODE = 308.9116
ARG_OF_PERICENTER = 124.5831
MEAN_ANOMALY   = 236.6160

EPHEMERIS_TYPE = 0
CLASSIFICATION_TYPE = U
NORAD_CAT_ID   = 66004
ELEMENT_SET_NO = 999
REV_AT_EPOCH   = 165
BSTAR          = .45667864E-4
MEAN_MOTION_DOT = -.38E-6
MEAN_MOTION_DDOT = 0

CCSDS_OMM_VERS = 2.0
CREATION_DATE  = 
ORIGINATOR     = 

OBJECT_NAME    = STARLINK-34849
OBJECT_ID      = 2025-232A
CENTER_NAME    = EARTH
REF_FRAME      = TEME
TIME_SYSTEM    = UTC
MEAN_ELEMENT_THEORY = SGP/SGP4

EPOCH          = 2025-10-27T20:00:01.000224
MEAN_MOTION    = 15.80279525
ECCENTRICITY   = .00010976
INCLINATION    = 53.1556
RA_OF_ASC_NODE = 5.6260
ARG_OF_PERICENTER = 67.6102
MEAN_ANOMALY   = 166.6604

EPHEMERIS_TYPE = 0
CLASSIFICATION_TYPE = U
NORAD_CAT_ID   = 66005
ELEMENT_SET_NO = 999
REV_AT_EPOCH   = 217
BSTAR          = -.89331941E-2
MEAN_MOTION_DOT = -.1511668E-1
MEAN_MOTION_DDOT = 0

CCSDS_OMM_VERS = 2.0
CREATION_DATE  = 
ORIGINATOR     = 

OBJECT_NAME    = STARLINK-35336
OBJECT_ID      = 2025-232B
CENTER_NAME    = EARTH
REF_FRAME      = TEME
TIME_SYSTEM    = UTC
MEAN_ELEMENT_THEORY = SGP/SGP4

EPOCH          = 2025-10-27T20:00:01.000224
MEAN_MOTION    = 15.80208112
ECCENTRICITY   = .00008986
INCLINATION    = 53.1552
RA_OF_ASC_NODE = 5.6205
ARG_OF_PERICENTER = 65.6268
MEAN_ANOMALY   = 171.2228

EPHEMERIS_TYPE = 0
CLASSIFICATION_TYPE = U
NORAD_CAT_ID   = 66006
ELEMENT_SET_NO = 999
REV_AT_EPOCH   = 218
BSTAR          = -.90505197E-2
MEAN_MOTION_DOT = -.1524518E-1
MEAN_MOTION_DDOT = 0

CCSDS_OMM_VERS = 2.0
CREATION_DATE  = 
ORIGINATOR     = 

OBJECT_NAME    = STARLINK-35196
OBJECT_ID      = 2025-232C
CENTER_NAME    = EARTH
REF_FRAME      = TEME
TIME_SYSTEM    = UTC
MEAN_ELEMENT_THEORY = SGP/SGP4

EPOCH          = 2025-10-27T20:00:01.000224
MEAN_MOTION    = 15.80198694
ECCENTRICITY   = .00008174
INCLINATION    = 53.1555
RA_OF_ASC_NODE = 5.6163
ARG_OF_PERICENTER = 67.6344
MEAN_ANOMALY   = 171.3182

EPHEMERIS_TYPE = 0
CLASSIFICATION_TYPE = U
NORAD_CAT_ID   = 66007
ELEMENT_SET_NO = 999
REV_AT_EPOCH   = 218
BSTAR          = -.91112361E-2
MEAN_MOTION_DOT = -.1532845E-1
MEAN_MOTION_DDOT = 0

CCSDS_OMM_VERS = 2.0
CREATION_DATE  = 
ORIGINATOR     = 

OBJECT_NAME    = STARLINK-35236
OBJECT_ID      = 2025-232D
CENTER_NAME    = EARTH
REF_FRAME      = TEME
TIME_SYSTEM    = UTC
MEAN_ELEMENT_THEORY = SGP/SGP4

EPOCH          = 2025-10-27T20:00:01.000224
MEAN_MOTION    = 15.80160537
ECCENTRICITY   = .00007672
INCLINATION    = 53.1549
RA_OF_ASC_NODE = 5.6105
ARG_OF_PERICENTER = 69.7214
MEAN_ANOMALY   = 171.5546

EPHEMERIS_TYPE = 0
CLASSIFICATION_TYPE = U
NORAD_CAT_ID   = 66008
ELEMENT_SET_NO = 999
REV_AT_EPOCH   = 218
BSTAR          = -.91890338E-2
MEAN_MOTION_DOT = -.1541885E-1
MEAN_MOTION_DDOT = 0

CCSDS_OMM_VERS = 2.0
CREATION_DATE  = 
ORIGINATOR     = 

OBJECT_NAME    = STARLINK-35276
OBJECT_ID      = 2025-232E
CENTER_NAME    = EARTH
REF_FRAME      = TEME
TIME_SYSTEM    = UTC
MEAN_ELEMENT_THEORY = SGP/SGP4

EPOCH          = 2025-10-27T20:00:01.000224
MEAN_MOTION    = 15.80105398
ECCENTRICITY   = .0000711
INCLINATION    = 53.1548
RA_OF_ASC_NODE = 5.6059
ARG_OF_PERICENTER = 82.6129
MEAN_ANOMALY   = 161.1220

EPHEMERIS_TYPE = 0
CLASSIFICATION_TYPE = U
NORAD_CAT_ID   = 66009
ELEMENT_SET_NO = 999
REV_AT_EPOCH   = 217
BSTAR          = -.9291124E-2
MEAN_MOTION_DOT = -.1553354E-1
MEAN_MOTION_DDOT = 0

CCSDS_OMM_VERS = 2.0
CREATION_DATE  = 
ORIGINATOR     = 

OBJECT_NAME    = STARLINK-35297
OBJECT_ID      = 2025-232F
CENTER_NAME    = EARTH
REF_FRAME      = TEME
TIME_SYSTEM    = UTC
MEAN_ELEMENT_THEORY = SGP/SGP4

EPOCH          = 2025-10-27T20:00:01.000224
MEAN_MOTION    = 15.80081244
ECCENTRICITY   = .00009527
INCLINATION    = 53.1551
RA_OF_ASC_NODE = 5.6012
ARG_OF_PERICENTER = 62.9768
MEAN_ANOMALY   = 182.9458

EPHEMERIS_TYPE = 0
CLASSIFICATION_TYPE = U
NORAD_CAT_ID   = 66010
ELEMENT_SET_NO = 999
REV_AT_EPOCH   = 218
BSTAR          = -.93416532E-2
MEAN_MOTION_DOT = -.1559383E-1
MEAN_MOTION_DDOT = 0

CCSDS_OMM_VERS = 2.0
CREATION_DATE  = 
ORIGINATOR     = 

OBJECT_NAME    = STARLINK-35256
OBJECT_ID      = 2025-232G
CENTER_NAME    = EARTH
REF_FRAME      = TEME
TIME_SYSTEM    = UTC
MEAN_ELEMENT_THEORY = SGP/SGP4

EPOCH          = 2025-10-27T20:00:01.000224
MEAN_MOTION    = 15.79987967
ECCENTRICITY   = .00011091
INCLINATION    = 53.1552
RA_OF_ASC_NODE = 5.5832
ARG_OF_PERICENTER = 63.2297
MEAN_ANOMALY   = 191.4831

EPHEMERIS_TYPE = 0
CLASSIFICATION_TYPE = U
NORAD_CAT_ID   = 66011
ELEMENT_SET_NO = 999
REV_AT_EPOCH   = 218
BSTAR          = -.96393809E-2
MEAN_MOTION_DOT = -.1596746E-1
MEAN_MOTION_DDOT = 0

